start=new Date('2022-02-01T00:00:00.000Z').valueOf();
sats=[{"CENTER_NAME":"EARTH","OBJECT_NAME":"STARLINK-1598","NORAD_CAT_ID":"46160","OBJECT_TYPE":"PAYLOAD","COUNTRY_CODE":"US","EPOCH":"2022-01-31T20:09:06.850368","MEAN_ELEMENT_THEORY":"SGP4","INCLINATION":"53.0541","MEAN_MOTION_DOT":"-0.00000556","MEAN_MOTION":"15.06398669","ECCENTRICITY":"0.00017250","MEAN_ANOMALY":"298.1501","ELEMENT_SET_NO":"999","CLASSIFICATION_TYPE":"U","FILE":"3288814","ARG_OF_PERICENTER":"61.9662","OBJECT_ID":"2020-057AV","SITE":"AFETR","TLE_LINE2":"2 46160  53.0541 180.7250 0001725  61.9662 298.1501 15.06398669 81834","REF_FRAME":"TEME","SEMIMAJOR_AXIS":"6925.353","BSTAR":"-0.00001842100000","APOAPSIS":"548.412","EPHEMERIS_TYPE":"0","TLE_LINE1":"1 46160U 20057AV  22031.83966262 -.00000556  00000-0 -18421-4 0  9999","REV_AT_EPOCH":"8183","LAUNCH_DATE":"2020-08-18","PERIAPSIS":"546.023","GP_ID":"195050746","DECAY_DATE":null,"TIME_SYSTEM":"UTC","PERIOD":"95.592","RA_OF_ASC_NODE":"180.7250","MEAN_MOTION_DDOT":"0.0000000000000","RCS_SIZE":"LARGE"},{"OBJECT_ID":"2020-057AW","ARG_OF_PERICENTER":"91.9166","TLE_LINE2":"2 46161  53.0525 180.5240 0001649  91.9166 268.2012 15.06407421 81844","SITE":"AFETR","REF_FRAME":"TEME","MEAN_ANOMALY":"268.2012","ELEMENT_SET_NO":"999","FILE":"3288814","CLASSIFICATION_TYPE":"U","MEAN_ELEMENT_THEORY":"SGP4","INCLINATION":"53.0525","EPOCH":"2022-01-31T21:12:46.947744","MEAN_MOTION_DOT":"0.00000977","MEAN_MOTION":"15.06407421","ECCENTRICITY":"0.00016490","OBJECT_NAME":"STARLINK-1600","CENTER_NAME":"EARTH","NORAD_CAT_ID":"46161","COUNTRY_CODE":"US","OBJECT_TYPE":"PAYLOAD","RA_OF_ASC_NODE":"180.5240","MEAN_MOTION_DDOT":"0.0000000000000","RCS_SIZE":"LARGE","GP_ID":"195051496","DECAY_DATE":null,"PERIOD":"95.592","TIME_SYSTEM":"UTC","TLE_LINE1":"1 46161U 20057AW  22031.88387671  .00000977  00000-0  84481-4 0  9990","EPHEMERIS_TYPE":"0","REV_AT_EPOCH":"8184","LAUNCH_DATE":"2020-08-18","PERIAPSIS":"546.049","SEMIMAJOR_AXIS":"6925.326","BSTAR":"0.00008448100000","APOAPSIS":"548.333"},{"LAUNCH_DATE":"2020-08-18","PERIAPSIS":"545.879","EPHEMERIS_TYPE":"0","TLE_LINE1":"1 46162U 20057AX  22031.82122113  .00000654  00000-0  62826-4 0  9994","REV_AT_EPOCH":"8184","BSTAR":"0.00006282600000","APOAPSIS":"548.519","SEMIMAJOR_AXIS":"6925.334","RCS_SIZE":"LARGE","RA_OF_ASC_NODE":"180.8020","MEAN_MOTION_DDOT":"0.0000000000000","PERIOD":"95.592","TIME_SYSTEM":"UTC","GP_ID":"195051748","DECAY_DATE":null,"MEAN_MOTION":"15.06404680","ECCENTRICITY":"0.00019060","EPOCH":"2022-01-31T19:42:33.505632","INCLINATION":"53.0555","MEAN_ELEMENT_THEORY":"SGP4","MEAN_MOTION_DOT":"0.00000654","OBJECT_TYPE":"PAYLOAD","COUNTRY_CODE":"US","CENTER_NAME":"EARTH","OBJECT_NAME":"STARLINK-1603","NORAD_CAT_ID":"46162","SITE":"AFETR","TLE_LINE2":"2 46162  53.0555 180.8020 0001906  87.9366 272.1841 15.06404680 81848","REF_FRAME":"TEME","ARG_OF_PERICENTER":"87.9366","OBJECT_ID":"2020-057AX","ELEMENT_SET_NO":"999","CLASSIFICATION_TYPE":"U","FILE":"3288814","MEAN_ANOMALY":"272.1841"},{"MEAN_ANOMALY":"283.7242","CLASSIFICATION_TYPE":"U","FILE":"3288814","ELEMENT_SET_NO":"999","ARG_OF_PERICENTER":"76.3923","OBJECT_ID":"2020-057AY","REF_FRAME":"TEME","SITE":"AFETR","TLE_LINE2":"2 46163  53.0528 161.1226 0001577  76.3923 283.7242 15.06402101 80853","NORAD_CAT_ID":"46163","CENTER_NAME":"EARTH","OBJECT_NAME":"STARLINK-1610","OBJECT_TYPE":"PAYLOAD","COUNTRY_CODE":"US","MEAN_MOTION_DOT":"0.00001671","EPOCH":"2022-01-31T18:04:22.140192","MEAN_ELEMENT_THEORY":"SGP4","INCLINATION":"53.0528","ECCENTRICITY":"0.00015770","MEAN_MOTION":"15.06402101","DECAY_DATE":null,"GP_ID":"195051996","TIME_SYSTEM":"UTC","PERIOD":"95.592","MEAN_MOTION_DDOT":"0.0000000000000","RA_OF_ASC_NODE":"161.1226","RCS_SIZE":"LARGE","SEMIMAJOR_AXIS":"6925.342","APOAPSIS":"548.299","BSTAR":"0.00013104000000","REV_AT_EPOCH":"8085","EPHEMERIS_TYPE":"0","TLE_LINE1":"1 46163U 20057AY  22031.75303403  .00001671  00000-0  13104-3 0  9994","PERIAPSIS":"546.115","LAUNCH_DATE":"2020-08-18"},{"NORAD_CAT_ID":"46164","CENTER_NAME":"EARTH","OBJECT_NAME":"STARLINK-1612","OBJECT_TYPE":"PAYLOAD","COUNTRY_CODE":"US","MEAN_MOTION_DOT":"0.00001541","EPOCH":"2022-01-31T17:59:03.291360","MEAN_ELEMENT_THEORY":"SGP4","INCLINATION":"53.0532","ECCENTRICITY":"0.00018790","MEAN_MOTION":"15.06404093","MEAN_ANOMALY":"272.4815","CLASSIFICATION_TYPE":"U","FILE":"3288814","ELEMENT_SET_NO":"999","ARG_OF_PERICENTER":"87.6389","OBJECT_ID":"2020-057AZ","REF_FRAME":"TEME","SITE":"AFETR","TLE_LINE2":"2 46164  53.0532 161.1344 0001879  87.6389 272.4815 15.06404093 82110","SEMIMAJOR_AXIS":"6925.336","APOAPSIS":"548.502","BSTAR":"0.00012231000000","REV_AT_EPOCH":"8211","EPHEMERIS_TYPE":"0","TLE_LINE1":"1 46164U 20057AZ  22031.74934365  .00001541  00000-0  12231-3 0  9997","PERIAPSIS":"545.900","LAUNCH_DATE":"2020-08-18","DECAY_DATE":null,"GP_ID":"195051246","TIME_SYSTEM":"UTC","PERIOD":"95.592","MEAN_MOTION_DDOT":"0.0000000000000","RA_OF_ASC_NODE":"161.1344","RCS_SIZE":"LARGE"},{"SEMIMAJOR_AXIS":"6922.248","APOAPSIS":"546.006","BSTAR":"0.00048448000000","REV_AT_EPOCH":"8029","EPHEMERIS_TYPE":"0","TLE_LINE1":"1 46165U 20057BA  22031.73830473  .00007140  00000-0  48448-3 0  9992","PERIAPSIS":"542.220","LAUNCH_DATE":"2020-08-18","GP_ID":"195050997","DECAY_DATE":null,"PERIOD":"95.528","TIME_SYSTEM":"UTC","MEAN_MOTION_DDOT":"0.0000000000000","RA_OF_ASC_NODE":"200.9436","RCS_SIZE":"LARGE","NORAD_CAT_ID":"46165","CENTER_NAME":"EARTH","OBJECT_NAME":"STARLINK-1613","OBJECT_TYPE":"PAYLOAD","COUNTRY_CODE":"US","MEAN_MOTION_DOT":"0.00007140","EPOCH":"2022-01-31T17:43:09.528672","MEAN_ELEMENT_THEORY":"SGP4","INCLINATION":"53.0508","ECCENTRICITY":"0.00027350","MEAN_MOTION":"15.07412177","MEAN_ANOMALY":"239.2834","CLASSIFICATION_TYPE":"U","FILE":"3288814","ELEMENT_SET_NO":"999","ARG_OF_PERICENTER":"120.8425","OBJECT_ID":"2020-057BA","REF_FRAME":"TEME","SITE":"AFETR","TLE_LINE2":"2 46165  53.0508 200.9436 0002735 120.8425 239.2834 15.07412177 80293"},{"ARG_OF_PERICENTER":"77.3419","OBJECT_ID":"2020-057BB","REF_FRAME":"TEME","SITE":"AFETR","TLE_LINE2":"2 46166  53.0540 200.5985 0001841  77.3419 282.7776 15.06401060 80310","MEAN_ANOMALY":"282.7776","CLASSIFICATION_TYPE":"U","FILE":"3288814","ELEMENT_SET_NO":"999","MEAN_MOTION_DOT":"0.00001914","EPOCH":"2022-01-31T20:48:54.530784","MEAN_ELEMENT_THEORY":"SGP4","INCLINATION":"53.0540","ECCENTRICITY":"0.00018410","MEAN_MOTION":"15.06401060","NORAD_CAT_ID":"46166","CENTER_NAME":"EARTH","OBJECT_NAME":"STARLINK-1615","OBJECT_TYPE":"PAYLOAD","COUNTRY_CODE":"US","MEAN_MOTION_DDOT":"0.0000000000000","RA_OF_ASC_NODE":"200.5985","RCS_SIZE":"LARGE","DECAY_DATE":null,"GP_ID":"195052248","PERIOD":"95.592","TIME_SYSTEM":"UTC","REV_AT_EPOCH":"8031","EPHEMERIS_TYPE":"0","TLE_LINE1":"1 46166U 20057BB  22031.86729781  .00001914  00000-0  14733-3 0  9999","PERIAPSIS":"545.935","LAUNCH_DATE":"2020-08-18","SEMIMAJOR_AXIS":"6925.345","APOAPSIS":"548.485","BSTAR":"0.00014733000000"},{"MEAN_MOTION_DDOT":"0.0000000000000","RA_OF_ASC_NODE":"201.1446","RCS_SIZE":"LARGE","DECAY_DATE":null,"GP_ID":"195052496","TIME_SYSTEM":"UTC","PERIOD":"95.592","REV_AT_EPOCH":"8029","EPHEMERIS_TYPE":"0","TLE_LINE1":"1 46167U 20057BC  22031.74934555  .00000087  00000-0  24743-4 0  9997","PERIAPSIS":"545.779","LAUNCH_DATE":"2020-08-18","SEMIMAJOR_AXIS":"6925.331","APOAPSIS":"548.614","BSTAR":"0.00002474300000","ARG_OF_PERICENTER":"78.2770","OBJECT_ID":"2020-057BC","REF_FRAME":"TEME","SITE":"AFETR","TLE_LINE2":"2 46167  53.0542 201.1446 0002047  78.2770 281.8448 15.06405631 80292","MEAN_ANOMALY":"281.8448","CLASSIFICATION_TYPE":"U","FILE":"3288814","ELEMENT_SET_NO":"999","MEAN_MOTION_DOT":"0.00000087","EPOCH":"2022-01-31T17:59:03.455520","MEAN_ELEMENT_THEORY":"SGP4","INCLINATION":"53.0542","ECCENTRICITY":"0.00020470","MEAN_MOTION":"15.06405631","NORAD_CAT_ID":"46167","CENTER_NAME":"EARTH","OBJECT_NAME":"STARLINK-1626","OBJECT_TYPE":"PAYLOAD","COUNTRY_CODE":"US"},{"TLE_LINE2":"2 46168  53.0551 151.2635 0001648  84.8181 275.2996 15.06404991 80982","SITE":"AFETR","REF_FRAME":"TEME","OBJECT_ID":"2020-057BD","ARG_OF_PERICENTER":"84.8181","ELEMENT_SET_NO":"999","FILE":"3288814","CLASSIFICATION_TYPE":"U","MEAN_ANOMALY":"275.2996","MEAN_MOTION":"15.06404991","ECCENTRICITY":"0.00016480","INCLINATION":"53.0551","MEAN_ELEMENT_THEORY":"SGP4","EPOCH":"2022-01-31T17:16:33.328416","MEAN_MOTION_DOT":"0.00001165","COUNTRY_CODE":"US","OBJECT_TYPE":"PAYLOAD","OBJECT_NAME":"STARLINK-1627","CENTER_NAME":"EARTH","NORAD_CAT_ID":"46168","RCS_SIZE":"LARGE","RA_OF_ASC_NODE":"151.2635","MEAN_MOTION_DDOT":"0.0000000000000","PERIOD":"95.592","TIME_SYSTEM":"UTC","GP_ID":"195050747","DECAY_DATE":null,"LAUNCH_DATE":"2020-08-18","PERIAPSIS":"546.057","TLE_LINE1":"1 46168U 20057BD  22031.71983019  .00001165  00000-0  97112-4 0  9992","EPHEMERIS_TYPE":"0","REV_AT_EPOCH":"8098","BSTAR":"0.00009711200000","APOAPSIS":"548.340","SEMIMAJOR_AXIS":"6925.333"},{"TIME_SYSTEM":"UTC","PERIOD":"95.643","GP_ID":"195051497","DECAY_DATE":null,"RCS_SIZE":"LARGE","MEAN_MOTION_DDOT":"0.0000000000000","RA_OF_ASC_NODE":"200.7774","APOAPSIS":"550.831","BSTAR":"0.00041711000000","SEMIMAJOR_AXIS":"6927.811","PERIAPSIS":"548.522","LAUNCH_DATE":"2020-08-18","REV_AT_EPOCH":"8027","EPHEMERIS_TYPE":"0","TLE_LINE1":"1 46169U 20057BE  22031.82613926  .00005806  00000-0  41711-3 0  9991","CLASSIFICATION_TYPE":"U","FILE":"3288814","ELEMENT_SET_NO":"999","MEAN_ANOMALY":"277.4632","REF_FRAME":"TEME","SITE":"AFETR","TLE_LINE2":"2 46169  52.9979 200.7774 0001666  82.6546 277.4632 15.05596798 80279","ARG_OF_PERICENTER":"82.6546","OBJECT_ID":"2020-057BE","OBJECT_TYPE":"PAYLOAD","COUNTRY_CODE":"US","NORAD_CAT_ID":"46169","CENTER_NAME":"EARTH","OBJECT_NAME":"STARLINK-1628","ECCENTRICITY":"0.00016660","MEAN_MOTION":"15.05596798","MEAN_MOTION_DOT":"0.00005806","EPOCH":"2022-01-31T19:49:38.432064","MEAN_ELEMENT_THEORY":"SGP4","INCLINATION":"52.9979"}];
